NORAD_CAT_ID,OBJECT_NAME,OBJECT_TYPE,EPOCH,MEAN_MOTION,ECCENTRICITY,INCLINATION,RA_OF_ASC_NODE,ARG_OF_PERICENTER,MEAN_ANOMALY,BSTAR,MEAN_MOTION_DOT,MEAN_MOTION_DDOT,TLE_LINE0,TLE_LINE1,TLE_LINE2,SEMIMAJOR_AXIS,PERIOD,APOGEE,PERIGEE,DECAYED
50820.0,STARLINK-3339,PAYLOAD,2023-11-24 03:19:23,15.08841121,0.0001562,53.2171,324.5453,98.4197,261.6972,0.0001449,2.019e-05,0.0,0 STARLINK-3339,1 50820U 22001T   23328.13847048  .00002019  00000-0  14490-3 0  9996,2 50820  53.2171 324.5453 0001562  98.4197 261.6972 15.08841121105396,6917.877,95.437,540.823,538.661,0.0
50820.0,STARLINK-3339,PAYLOAD,2023-11-24 06:30:10,15.08843416,0.0001627,53.217,323.9504,97.1512,262.9665,0.00016008,2.261e-05,0.0,0 STARLINK-3339,1 50820U 22001T   23328.27094961  .00002261  00000-0  16008-3 0  9995,2 50820  53.2170 323.9504 0001627  97.1512 262.9665 15.08843416104137,6917.87,95.437,540.86,538.609,0.0
50820.0,STARLINK-3339,PAYLOAD,2023-11-25 06:20:56,15.08854005,0.0001763,53.2171,319.4925,101.076,259.043,0.0001537,2.16e-05,0.0,0 STARLINK-3339,1 50820U 22001T   23329.26454191  .00002160  00000-0  15370-3 0  9999,2 50820  53.2171 319.4925 0001763 101.0760 259.0430 15.08854005104285,6917.838,95.437,540.922,538.483,0.0
50820.0,STARLINK-3339,PAYLOAD,2023-11-26 09:22:28,15.0887762,0.0001611,53.2161,314.4343,98.2048,261.9127,0.0010347,0.00016235,0.0,0 STARLINK-3339,1 50820U 22001T   23330.39061120  .00016235  00000-0  10347-2 0  9997,2 50820  53.2161 314.4343 0001611  98.2048 261.9127 15.08877620105735,6917.765,95.435,540.745,538.516,0.0
50820.0,STARLINK-3339,PAYLOAD,2023-11-26 22:05:35,15.08817976,0.0001808,53.2174,312.0581,94.5178,265.6021,-0.00056929,-9.332e-05,0.0,0 STARLINK-3339,1 50820U 22001T   23330.92054481 -.00009332  00000-0 -56929-3 0  9997,2 50820  53.2174 312.0581 0001808  94.5178 265.6021 15.08817976104537,6917.948,95.439,541.063,538.562,0.0
50820.0,STARLINK-3339,PAYLOAD,2023-11-27 04:27:08,15.08801127,0.0001635,53.2165,310.8673,90.7922,269.3257,-0.00056189,-9.21e-05,0.0,0 STARLINK-3339,1 50820U 22001T   23331.18551419 -.00009210  00000-0 -56189-3 0  9992,2 50820  53.2165 310.8673 0001635  90.7922 269.3257 15.08801127105857,6917.999,95.44,540.995,538.733,0.0
50820.0,STARLINK-3339,PAYLOAD,2023-11-27 07:37:55,15.0880125,0.000177,53.2173,310.2728,82.8877,277.2317,-0.00042739,-7.076e-05,0.0,0 STARLINK-3339,1 50820U 22001T   23331.31799881 -.00007076  00000-0 -42739-3 0  9998,2 50820  53.2173 310.2728 0001770  82.8877 277.2317 15.08801250104594,6917.999,95.44,541.088,538.639,0.0
50820.0,STARLINK-3339,PAYLOAD,2023-11-28 02:42:33,15.08840779,0.0001654,53.2162,306.7033,79.9688,280.1491,0.0013828,0.00021788,0.0,0 STARLINK-3339,1 50820U 22001T   23332.11288645  .00021788  00000-0  13828-2 0  9998,2 50820  53.2162 306.7033 0001654  79.9688 280.1491 15.08840779105999,6917.878,95.438,540.887,538.599,0.0
50820.0,STARLINK-3339,PAYLOAD,2023-11-28 05:53:19,15.08861045,0.0001654,53.2162,306.1091,82.2072,277.9108,0.0019956,0.00031633,0.0,0 STARLINK-3339,1 50820U 22001T   23332.24536409  .00031633  00000-0  19956-2 0  9994,2 50820  53.2162 306.1091 0001654  82.2072 277.9108 15.08861045106013,6917.816,95.436,540.825,538.537,0.0
50820.0,STARLINK-3339,PAYLOAD,2023-11-28 21:47:10,15.08864931,0.0001693,53.2172,303.1376,86.3001,273.8185,0.0013097,0.00020632,0.0,0 STARLINK-3339,1 50820U 22001T   23332.90775841  .00020632  00000-0  13097-2 0  9999,2 50820  53.2172 303.1376 0001693  86.3001 273.8185 15.08864931104832,6917.804,95.436,540.84,538.498,0.0
50820.0,STARLINK-3339,PAYLOAD,2023-11-29 04:08:42,15.0887231,0.000177,53.2168,301.9467,77.4805,282.6385,0.00098013,0.00015359,0.0,0 STARLINK-3339,1 50820U 22001T   23333.17271419  .00015359  00000-0  98013-3 0  9993,2 50820  53.2168 301.9467 0001770  77.4805 282.6385 15.08872310106150,6917.782,95.436,540.871,538.422,0.0
50820.0,STARLINK-3339,PAYLOAD,2023-11-29 07:19:28,15.0888874,0.0001693,53.2163,301.3507,90.8927,269.2259,0.0014871,0.0002349,0.0,0 STARLINK-3339,1 50820U 22001T   23333.30518842  .00023490  00000-0  14871-2 0  9996,2 50820  53.2163 301.3507 0001693  90.8927 269.2259 15.08888740106179,6917.731,95.434,540.768,538.425,0.0
50820.0,STARLINK-3339,PAYLOAD,2023-11-30 03:59:29,15.08843797,0.0002027,53.2171,297.4894,86.6087,273.5137,6.0561e-05,6.76e-06,0.0,0 STARLINK-3339,1 50820U 22001T   23334.16631376  .00000676  00000-0  60561-4 0  9999,2 50820  53.2171 297.4894 0002027  86.6087 273.5137 15.08843797106305,6917.869,95.437,541.136,538.332,0.0
50820.0,STARLINK-3339,PAYLOAD,2023-12-01 03:50:16,15.08840438,0.0001985,53.2172,293.0225,98.3337,261.788,0.00029232,4.367e-05,0.0,0 STARLINK-3339,1 50820U 22001T   23335.15991658  .00004367  00000-0  29232-3 0  9991,2 50820  53.2172 293.0225 0001985  98.3337 261.7880 15.08840438106455,6917.879,95.438,541.117,538.371,0.0
50820.0,STARLINK-3339,PAYLOAD,2023-12-02 00:30:16,15.08861079,0.000219,53.2173,289.1708,118.7558,241.3654,0.0005795,8.952e-05,0.0,0 STARLINK-3339,1 50820U 22001T   23336.02102781  .00008952  00000-0  57950-3 0  9991,2 50820  53.2173 289.1708 0002190 118.7558 241.3654 15.08861079106580,6917.816,95.436,541.196,538.166,0.0
50820.0,STARLINK-3339,PAYLOAD,2023-12-02 06:51:48,15.08895958,0.0001903,53.2172,287.9654,91.4274,268.6936,0.0013361,0.00021073,0.0,0 STARLINK-3339,1 50820U 22001T   23336.28597733  .00021073  00000-0  13361-2 0  9990,2 50820  53.2172 287.9654 0001903  91.4274 268.6936 15.08895958106621,6917.709,95.434,540.891,538.258,0.0
50820.0,STARLINK-3339,PAYLOAD,2023-12-03 03:31:50,15.08823475,0.0001662,53.2165,284.1044,89.4117,270.7065,-0.00050438,-8.303e-05,0.0,0 STARLINK-3339,1 50820U 22001T   23337.14711219 -.00008303  00000-0 -50438-3 0  9993,2 50820  53.2165 284.1044 0001662  89.4117 270.7065 15.08823475106756,6917.931,95.439,540.946,538.646,0.0
50820.0,STARLINK-3339,PAYLOAD,2023-12-03 06:42:36,15.08825213,0.0001657,53.2168,283.5084,93.6444,266.4738,-0.00033849,-5.669e-05,0.0,0 STARLINK-3339,1 50820U 22001T   23337.27959454 -.00005669  00000-0 -33849-3 0  9991,2 50820  53.2168 283.5084 0001657  93.6444 266.4738 15.08825213105491,6917.926,95.438,540.937,538.644,0.0
50820.0,STARLINK-3339,PAYLOAD,2023-12-04 03:22:38,15.08835747,0.0001599,53.2158,279.6471,82.3395,277.7779,0.00026569,3.942e-05,0.0,0 STARLINK-3339,1 50820U 22001T   23338.14072203  .00003942  00000-0  26569-3 0  9997,2 50820  53.2158 279.6471 0001599  82.3395 277.7779 15.08835747106901,6917.893,95.438,540.865,538.652,0.0
50820.0,STARLINK-3339,PAYLOAD,2023-12-04 06:33:24,15.08837664,0.0001611,53.216,279.0511,80.3419,279.7755,0.00072911,0.00011334,0.0,0 STARLINK-3339,1 50820U 22001T   23338.27320437  .00011334  00000-0  72911-3 0  9992,2 50820  53.2160 279.0511 0001611  80.3419 279.7755 15.08837664105649,6917.888,95.438,540.867,538.638,0.0
50820.0,STARLINK-3339,PAYLOAD,2023-12-04 19:16:29,15.08849064,0.0001624,53.2159,276.6703,81.4114,278.7062,0.00080264,0.00012512,0.0,0 STARLINK-3339,1 50820U 22001T   23338.80312443  .00012512  00000-0  80264-3 0  9998,2 50820  53.2159 276.6703 0001624  81.4114 278.7062 15.08849064105727,6917.853,95.437,540.841,538.594,0.0
50820.0,STARLINK-3339,PAYLOAD,2023-12-05 06:24:11,15.08867106,0.0001652,53.2159,274.5892,86.0702,274.0479,0.00098892,0.00015497,0.0,0 STARLINK-3339,1 50820U 22001T   23339.26679720  .00015497  00000-0  98892-3 0  9994,2 50820  53.2159 274.5892 0001652  86.0702 274.0479 15.08867106107076,6917.798,95.436,540.805,538.52,0.0
50820.0,STARLINK-3339,PAYLOAD,2023-12-06 03:04:12,15.08850534,0.0001794,53.2158,270.7226,75.393,284.7261,0.00025401,3.758e-05,0.0,0 STARLINK-3339,1 50820U 22001T   23340.12791731  .00003758  00000-0  25401-3 0  9991,2 50820  53.2158 270.7226 0001794  75.3930 284.7261 15.08850534107204,6917.848,95.437,540.954,538.472,0.0
50820.0,STARLINK-3339,PAYLOAD,2023-12-07 04:30:22,15.08834944,0.0001451,53.2161,265.9663,103.5515,256.5639,0.00022519,3.297e-05,0.0,0 STARLINK-3339,1 50820U 22001T   23341.18776197  .00003297  00000-0  22519-3 0  9992,2 50820  53.2161 265.9663 0001451 103.5515 256.5639 15.08834944107362,6917.896,95.438,540.765,538.757,0.0
50820.0,STARLINK-3339,PAYLOAD,2023-12-07 18:48:51,15.08832992,0.0001519,53.2162,263.2893,98.3732,261.7433,0.00014736,2.058e-05,0.0,0 STARLINK-3339,1 50820U 22001T   23341.78392624  .00002058  00000-0  14736-3 0  9993,2 50820  53.2162 263.2893 0001519  98.3732 261.7433 15.08832992107457,6917.902,95.438,540.818,538.716,0.0
50820.0,STARLINK-3339,PAYLOAD,2023-12-08 18:39:38,15.08848986,0.0001869,53.2169,258.8325,77.2994,282.8207,0.00036888,5.589e-05,0.0,0 STARLINK-3339,1 50820U 22001T   23342.77752415  .00005589  00000-0  36888-3 0  9995,2 50820  53.2169 258.8325 0001869  77.2994 282.8207 15.08848986107608,6917.853,95.437,541.011,538.425,0.0
50820.0,STARLINK-3339,PAYLOAD,2023-12-09 18:30:24,15.08847358,0.0001426,53.2163,254.367,103.0115,257.1037,0.00018823,2.71e-05,0.0,0 STARLINK-3339,1 50820U 22001T   23343.77112025  .00002710  00000-0  18823-3 0  9995,2 50820  53.2163 254.3670 0001426 103.0115 257.1037 15.08847358107752,6917.858,95.437,540.709,538.736,0.0
50820.0,STARLINK-3339,PAYLOAD,2023-12-10 04:02:43,15.08845071,0.0001311,53.2169,252.5853,93.8705,266.2437,8.9792e-05,1.142e-05,0.0,0 STARLINK-3339,1 50820U 22001T   23344.16855975  .00001142  00000-0  89792-4 0  9999,2 50820  53.2169 252.5853 0001311  93.8705 266.2437 15.08845071106535,6917.865,95.437,540.637,538.823,0.0
50820.0,STARLINK-3339,PAYLOAD,2023-12-10 21:31:58,15.08840885,0.0001422,53.2168,249.3132,98.0029,262.1125,1.5637e-05,-3.9e-07,0.0,0 STARLINK-3339,1 50820U 22001T   23344.89720072 -.00000039  00000-0  15637-4 0  9990,2 50820  53.2168 249.3132 0001422  98.0029 262.1125 15.08840885106646,6917.878,95.437,540.726,538.759,0.0
50820.0,STARLINK-3339,PAYLOAD,2023-12-10 23:07:21,15.0884157,0.000136,53.2177,249.0156,85.577,274.5378,4.0866e-05,3.63e-06,0.0,0 STARLINK-3339,1 50820U 22001T   23344.96344135  .00000363  00000-0  40866-4 0  9991,2 50820  53.2177 249.0156 0001360  85.5770 274.5378 15.08841570107936,6917.876,95.437,540.681,538.8,0.0
